{"type": "FeatureCollection", "features": [ {"type": "Feature", "properties": {"norad_id": 29868, "name": "FENGYUN 1C DEB", "group": "fengyun-1c-debris", "lat": 66.31448145200835, "lon": -127.00484628225493, "alt_km": 682.9346337745301, "timestamp": "2025-12-14T16:47:40.955488+00:00", "meta": {"OBJECT_NAME": "FENGYUN 1C DEB", "OBJECT_ID": "1999-025FN", "EPOCH": "2025-12-13T21:37:05.176704", "MEAN_MOTION": 14.78445921, "ECCENTRICITY": 0.01966084, "INCLINATION": 97.9506, "RA_OF_ASC_NODE": 33.6278, "ARG_OF_PERICENTER": 0.2944, "MEAN_ANOMALY": 179.8167, "EPHEMERIS_TYPE": 0, "CLASSIFICATION_TYPE": "U", "NORAD_CAT_ID": 29868, "ELEMENT_SET_NO": 999, "REV_AT_EPOCH": 312, "BSTAR": 0.00078613251, "MEAN_MOTION_DOT": 7.881e-05, "MEAN_MOTION_DDOT": 0}, "tle": {"line1": "1 29868U 99025FN  25347.90075436  .00007881  00000+0  78613-3 0  9994", "line2": "2 29868  97.9506  33.6278 0196608   0.2944 179.8167 14.78445921  3129"}}, "geometry": {"type": "Point", "coordinates": [-127.00484628225493, 66.31448145200835]}}, {"type": "Feature", "properties": {"norad_id": 29869, "name": "FENGYUN 1C DEB", "group": "fengyun-1c-debris", "lat": -48.651562438950734, "lon": 88.83002992357622, "alt_km": 820.3078462060957, "timestamp": "2025-12-14T16:47:40.955498+00:00", "meta": {"OBJECT_NAME": "FENGYUN 1C DEB", "OBJECT_ID": "1999-025FP", "EPOCH": "2025-12-13T18:17:43.557216", "MEAN_MOTION": 14.36888619, "ECCENTRICITY": 0.00875513, "INCLINATION": 98.8727, "RA_OF_ASC_NODE": 278.0885, "ARG_OF_PERICENTER": 8.0649, "MEAN_ANOMALY": 55.4144, "EPHEMERIS_TYPE": 0, "CLASSIFICATION_TYPE": "U", "NORAD_CAT_ID": 29869, "ELEMENT_SET_NO": 999, "REV_AT_EPOCH": 98835, "BSTAR": 0.00060247583, "MEAN_MOTION_DOT": 1.814e-05, "MEAN_MOTION_DDOT": 0}, "tle": {"line1": "1 29869U 99025FP  25347.76230969  .00001814  00000+0  60248-3 0  9998", "line2": "2 29869  98.8727 278.0885 0087551   8.0649  55.4144 14.36888619988358"}}, "geometry": {"type": "Point", "coordinates": [88.83002992357622, -48.651562438950734]}}, {"type": "Feature", "properties": {"norad_id": 29870, "name": "FENGYUN 1C DEB", "group": "fengyun-1c-debris", "lat": -24.245399991833242, "lon": 135.71687596812848, "alt_km": 718.605319198823, "timestamp": "2025-12-14T16:47:40.955508+00:00", "meta": {"OBJECT_NAME": "FENGYUN 1C DEB", "OBJECT_ID": "1999-025FQ", "EPOCH": "2025-12-13T21:37:27.861888", "MEAN_MOTION": 14.28980905, "ECCENTRICITY": 0.01199253, "INCLINATION": 98.4602, "RA_OF_ASC_NODE": 318.7852, "ARG_OF_PERICENTER": 188.9795, "MEAN_ANOMALY": 228.2736, "EPHEMERIS_TYPE": 0, "CLASSIFICATION_TYPE": "U", "NORAD_CAT_ID": 29870, "ELEMENT_SET_NO": 999, "REV_AT_EPOCH": 98610, "BSTAR": 7.5811095e-05, "MEAN_MOTION_DOT": 1.64e-06, "MEAN_MOTION_DDOT": 0}, "tle": {"line1": "1 29870U 99025FQ  25347.90101692  .00000164  00000+0  75811-4 0  9996", "line2": "2 29870  98.4602 318.7852 0119925 188.9795 228.2736 14.28980905986105"}}, "geometry": {"type": "Point", "coordinates": [135.71687596812848, -24.245399991833242]}}, {"type": "Feature", "properties": {"norad_id": 29871, "name": "FENGYUN 1C DEB", "group": "fengyun-1c-debris", "lat": -69.25733005792426, "lon": 97.27308308599095, "alt_km": 793.0000105471581, "timestamp": "2025-12-14T16:47:40.955519+00:00", "meta": {"OBJECT_NAME": "FENGYUN 1C DEB", "OBJECT_ID": "1999-025FR", "EPOCH": "2025-12-13T19:48:12.215232", "MEAN_MOTION": 14.42648297, "ECCENTRICITY": 0.00587478, "INCLINATION": 98.9724, "RA_OF_ASC_NODE": 301.0098, "ARG_OF_PERICENTER": 104.2713, "MEAN_ANOMALY": 286.6869, "EPHEMERIS_TYPE": 0, "CLASSIFICATION_TYPE": "U", "NORAD_CAT_ID": 29871, "ELEMENT_SET_NO": 999, "REV_AT_EPOCH": 98717, "BSTAR": 0.0011788579, "MEAN_MOTION_DOT": 3.954e-05, "MEAN_MOTION_DDOT": 0}, "tle": {"line1": "1 29871U 99025FR  25347.82514138  .00003954  00000+0  11789-2 0  9993", "line2": "2 29871  98.9724 301.0098 0058747 104.2713 286.6869 14.42648297987172"}}, "geometry": {"type": "Point", "coordinates": [97.27308308599095, -69.25733005792426]}}, {"type": "Feature", "properties": {"norad_id": 29872, "name": "FENGYUN 1C DEB", "group": "fengyun-1c-debris", "lat": 42.90731675456958, "lon": -3.2252405006952687, "alt_km": 771.6101884741038, "timestamp": "2025-12-14T16:47:40.955529+00:00", "meta": {"OBJECT_NAME": "FENGYUN 1C DEB", "OBJECT_ID": "1999-025FS", "EPOCH": "2025-12-13T23:54:28.557504", "MEAN_MOTION": 14.38962334, "ECCENTRICITY": 0.02352871, "INCLINATION": 98.3462, "RA_OF_ASC_NODE": 3.9321, "ARG_OF_PERICENTER": 309.8043, "MEAN_ANOMALY": 48.264, "EPHEMERIS_TYPE": 0, "CLASSIFICATION_TYPE": "U", "NORAD_CAT_ID": 29872, "ELEMENT_SET_NO": 999, "REV_AT_EPOCH": 98610, "BSTAR": 0.00071124386, "MEAN_MOTION_DOT": 2.979e-05, "MEAN_MOTION_DDOT": 0}, "tle": {"line1": "1 29872U 99025FS  25347.99616386  .00002979  00000+0  71124-3 0  9996", "line2": "2 29872  98.3462   3.9321 0235287 309.8043  48.2640 14.38962334986105"}}, "geometry": {"type": "Point", "coordinates": [-3.2252405006952687, 42.90731675456958]}}, {"type": "Feature", "properties": {"norad_id": 29873, "name": "FENGYUN 1C DEB", "group": "fengyun-1c-debris", "lat": -11.868301662101322, "lon": 26.827268013458667, "alt_km": 837.168666938921, "timestamp": "2025-12-14T16:47:40.955539+00:00", "meta": {"OBJECT_NAME": "FENGYUN 1C DEB", "OBJECT_ID": "1999-025FT", "EPOCH": "2025-12-13T21:18:58.159296", "MEAN_MOTION": 13.98147506, "ECCENTRICITY": 0.00925148, "INCLINATION": 99.4418, "RA_OF_ASC_NODE": 207.9967, "ARG_OF_PERICENTER": 195.8169, "MEAN_ANOMALY": 233.2516, "EPHEMERIS_TYPE": 0, "CLASSIFICATION_TYPE": "U", "NORAD_CAT_ID": 29873, "ELEMENT_SET_NO": 999, "REV_AT_EPOCH": 96331, "BSTAR": 0.00017583893, "MEAN_MOTION_DOT": 2.12e-06, "MEAN_MOTION_DDOT": 0}, "tle": {"line1": "1 29873U 99025FT  25347.88817314  .00000212  00000+0  17584-3 0  9997", "line2": "2 29873  99.4418 207.9967 0092514 195.8169 233.2516 13.98147506963314"}}, "geometry": {"type": "Point", "coordinates": [26.827268013458667, -11.868301662101322]}}, {"type": "Feature", "properties": {"norad_id": 29874, "name": "FENGYUN 1C DEB", "group": "fengyun-1c-debris", "lat": -80.49610084082117, "lon": 3.82220335688189, "alt_km": 788.5416285255696, "timestamp": "2025-12-14T16:47:40.955549+00:00", "meta": {"OBJECT_NAME": "FENGYUN 1C DEB", "OBJECT_ID": "1999-025FU", "EPOCH": "2025-12-12T16:44:40.047072", "MEAN_MOTION": 14.28811805, "ECCENTRICITY": 0.01051691, "INCLINATION": 98.379, "RA_OF_ASC_NODE": 243.587, "ARG_OF_PERICENTER": 351.0325, "MEAN_ANOMALY": 63.1761, "EPHEMERIS_TYPE": 0, "CLASSIFICATION_TYPE": "U", "NORAD_CAT_ID": 29874, "ELEMENT_SET_NO": 999, "REV_AT_EPOCH": 96847, "BSTAR": 0.0043034786, "MEAN_MOTION_DOT": 0.00011486, "MEAN_MOTION_DDOT": 0}, "tle": {"line1": "1 29874U 99025FU  25346.69768573  .00011486  00000+0  43035-2 0  9992", "line2": "2 29874  98.3790 243.5870 0105169 351.0325  63.1761 14.28811805968474"}}, "geometry": {"type": "Point", "coordinates": [3.82220335688189, -80.49610084082117]}}, {"type": "Feature", "properties": {"norad_id": 29875, "name": "FENGYUN 1C DEB", "group": "fengyun-1c-debris", "lat": 79.96459381603836, "lon": -16.627703208381877, "alt_km": 748.1069664011466, "timestamp": "2025-12-14T16:47:40.955560+00:00", "meta": {"OBJECT_NAME": "FENGYUN 1C DEB", "OBJECT_ID": "1999-025FV", "EPOCH": "2025-12-13T15:42:33.133824", "MEAN_MOTION": 14.24878567, "ECCENTRICITY": 0.00831402, "INCLINATION": 98.4052, "RA_OF_ASC_NODE": 39.0398, "ARG_OF_PERICENTER": 60.6575, "MEAN_ANOMALY": 64.921, "EPHEMERIS_TYPE": 0, "CLASSIFICATION_TYPE": "U", "NORAD_CAT_ID": 29875, "ELEMENT_SET_NO": 999, "REV_AT_EPOCH": 98335, "BSTAR": 3.5044261e-05, "MEAN_MOTION_DOT": 4.4e-07, "MEAN_MOTION_DDOT": 0}, "tle": {"line1": "1 29875U 99025FV  25347.65455016  .00000044  00000+0  35044-4 0  9996", "line2": "2 29875  98.4052  39.0398 0083140  60.6575  64.9210 14.24878567983350"}}, "geometry": {"type": "Point", "coordinates": [-16.627703208381877, 79.96459381603836]}}, {"type": "Feature", "properties": {"norad_id": 29876, "name": "FENGYUN 1C DEB", "group": "fengyun-1c-debris", "lat": -53.09130973487186, "lon": 50.41351685192588, "alt_km": 812.7404935964614, "timestamp": "2025-12-14T16:47:40.955569+00:00", "meta": {"OBJECT_NAME": "FENGYUN 1C DEB", "OBJECT_ID": "1999-025FW", "EPOCH": "2025-12-13T21:35:59.701920", "MEAN_MOTION": 14.20298183, "ECCENTRICITY": 0.00614366, "INCLINATION": 98.3333, "RA_OF_ASC_NODE": 38.4062, "ARG_OF_PERICENTER": 14.0134, "MEAN_ANOMALY": 165.7668, "EPHEMERIS_TYPE": 0, "CLASSIFICATION_TYPE": "U", "NORAD_CAT_ID": 29876, "ELEMENT_SET_NO": 999, "REV_AT_EPOCH": 97933, "BSTAR": 0.00018172616, "MEAN_MOTION_DOT": 3.56e-06, "MEAN_MOTION_DDOT": 0}, "tle": {"line1": "1 29876U 99025FW  25347.89999655  .00000356  00000+0  18173-3 0  9994", "line2": "2 29876  98.3333  38.4062 0061436  14.0134 165.7668 14.20298183979337"}}, "geometry": {"type": "Point", "coordinates": [50.41351685192588, -53.09130973487186]}}, {"type": "Feature", "properties": {"norad_id": 29877, "name": "FENGYUN 1C DEB", "group": "fengyun-1c-debris", "lat": -18.897429730985262, "lon": 171.0094031284962, "alt_km": 782.1143665185964, "timestamp": "2025-12-14T16:47:40.955579+00:00", "meta": {"OBJECT_NAME": "FENGYUN 1C DEB", "OBJECT_ID": "1999-025FX", "EPOCH": "2025-12-13T23:18:03.419424", "MEAN_MOTION": 14.24794938, "ECCENTRICITY": 0.00459157, "INCLINATION": 98.5373, "RA_OF_ASC_NODE": 353.2482, "ARG_OF_PERICENTER": 214.7246, "MEAN_ANOMALY": 207.7718, "EPHEMERIS_TYPE": 0, "CLASSIFICATION_TYPE": "U", "NORAD_CAT_ID": 29877, "ELEMENT_SET_NO": 999, "REV_AT_EPOCH": 97991, "BSTAR": 0.00061825848, "MEAN_MOTION_DOT": 1.414e-05, "MEAN_MOTION_DDOT": 0}, "tle": {"line1": "1 29877U 99025FX  25347.97087291  .00001414  00000+0  61826-3 0  9997", "line2": "2 29877  98.5373 353.2482 0045915 214.7246 207.7718 14.24794938979915"}}, "geometry": {"type": "Point", "coordinates": [171.0094031284962, -18.897429730985262]}}]}